[{"OBJECT_NAME":"ONEWEB-0683","OBJECT_ID":"2023-068K","EPOCH":"2025-10-22T03:33:15.968736","MEAN_MOTION":13.15547806,"ECCENTRICITY":0.0001997,"INCLINATION":87.8967,"RA_OF_ASC_NODE":306.6851,"ARG_OF_PERICENTER":85.8484,"MEAN_ANOMALY":274.2875,"EPHEMERIS_TYPE":0,"CLASSIFICATION_TYPE":"U","NORAD_CAT_ID":56719,"ELEMENT_SET_NO":999,"REV_AT_EPOCH":11812,"BSTAR":-0.00019576,"MEAN_MOTION_DOT":-6.1e-7,"MEAN_MOTION_DDOT":0},{"OBJECT_NAME":"ONEWEB-0684","OBJECT_ID":"2023-068L","EPOCH":"2025-10-22T03:44:40.341408","MEAN_MOTION":13.15548165,"ECCENTRICITY":0.0002795,"INCLINATION":87.8967,"RA_OF_ASC_NODE":306.679,"ARG_OF_PERICENTER":119.6688,"MEAN_ANOMALY":240.4721,"EPHEMERIS_TYPE":0,"CLASSIFICATION_TYPE":"U","NORAD_CAT_ID":56720,"ELEMENT_SET_NO":999,"REV_AT_EPOCH":11795,"BSTAR":-7.4372e-5,"MEAN_MOTION_DOT":-1.5e-7,"MEAN_MOTION_DDOT":0},{"OBJECT_NAME":"ONEWEB-0686","OBJECT_ID":"2023-068M","EPOCH":"2025-10-21T23:50:12.955200","MEAN_MOTION":13.1659476,"ECCENTRICITY":0.0002218,"INCLINATION":87.8971,"RA_OF_ASC_NODE":276.2476,"ARG_OF_PERICENTER":85.7222,"MEAN_ANOMALY":274.4163,"EPHEMERIS_TYPE":0,"CLASSIFICATION_TYPE":"U","NORAD_CAT_ID":56721,"ELEMENT_SET_NO":999,"REV_AT_EPOCH":12037,"BSTAR":-3.6906e-5,"MEAN_MOTION_DOT":-1.0e-8,"MEAN_MOTION_DDOT":0},{"OBJECT_NAME":"ONEWEB-0694","OBJECT_ID":"2023-068N","EPOCH":"2025-10-22T00:51:45.795744","MEAN_MOTION":13.16599052,"ECCENTRICITY":0.0002161,"INCLINATION":87.8992,"RA_OF_ASC_NODE":276.1759,"ARG_OF_PERICENTER":75.8521,"MEAN_ANOMALY":284.285,"EPHEMERIS_TYPE":0,"CLASSIFICATION_TYPE":"U","NORAD_CAT_ID":56722,"ELEMENT_SET_NO":999,"REV_AT_EPOCH":12043,"BSTAR":0.00012072,"MEAN_MOTION_DOT":5.9e-7,"MEAN_MOTION_DDOT":0},{"OBJECT_NAME":"ONEWEB-0696","OBJECT_ID":"2023-068P","EPOCH":"2025-10-22T02:43:03.211968","MEAN_MOTION":13.15548988,"ECCENTRICITY":0.0001815,"INCLINATION":87.8965,"RA_OF_ASC_NODE":306.7437,"ARG_OF_PERICENTER":102.4457,"MEAN_ANOMALY":257.6876,"EPHEMERIS_TYPE":0,"CLASSIFICATION_TYPE":"U","NORAD_CAT_ID":56723,"ELEMENT_SET_NO":999,"REV_AT_EPOCH":11806,"BSTAR":9.5105e-5,"MEAN_MOTION_DOT":4.9e-7,"MEAN_MOTION_DDOT":0},{"OBJECT_NAME":"ONEWEB-0703","OBJECT_ID":"2023-068Q","EPOCH":"2025-10-22T02:56:43.363104","MEAN_MOTION":13.15546867,"ECCENTRICITY":0.0001538,"INCLINATION":87.8961,"RA_OF_ASC_NODE":306.7247,"ARG_OF_PERICENTER":127.4393,"MEAN_ANOMALY":232.6878,"EPHEMERIS_TYPE":0,"CLASSIFICATION_TYPE":"U","NORAD_CAT_ID":56724,"ELEMENT_SET_NO":999,"REV_AT_EPOCH":11795,"BSTAR":0.00014174,"MEAN_MOTION_DOT":6.6e-7,"MEAN_MOTION_DDOT":0},{"OBJECT_NAME":"ONEWEB-0721","OBJECT_ID":"2023-068R","EPOCH":"2025-10-22T04:33:44.422272","MEAN_MOTION":13.22449142,"ECCENTRICITY":0.0001525,"INCLINATION":86.6834,"RA_OF_ASC_NODE":161.4165,"ARG_OF_PERICENTER":77.2483,"MEAN_ANOMALY":282.8821,"EPHEMERIS_TYPE":0,"CLASSIFICATION_TYPE":"U","NORAD_CAT_ID":56725,"ELEMENT_SET_NO":999,"REV_AT_EPOCH":12648,"BSTAR":0.00036933,"MEAN_MOTION_DOT":1.68e-6,"MEAN_MOTION_DDOT":0},{"OBJECT_NAME":"ONEWEB-0015","OBJECT_ID":"2024-188A","EPOCH":"2025-10-22T02:39:45.303264","MEAN_MOTION":13.1141769,"ECCENTRICITY":0.0001186,"INCLINATION":87.8833,"RA_OF_ASC_NODE":68.5132,"ARG_OF_PERICENTER":77.9077,"MEAN_ANOMALY":282.2184,"EPHEMERIS_TYPE":0,"CLASSIFICATION_TYPE":"U","NORAD_CAT_ID":61594,"ELEMENT_SET_NO":999,"REV_AT_EPOCH":5325,"BSTAR":-0.00082777,"MEAN_MOTION_DOT":-2.81e-6,"MEAN_MOTION_DDOT":0},{"OBJECT_NAME":"ONEWEB-0687","OBJECT_ID":"2024-188B","EPOCH":"2025-10-22T02:16:44.709024","MEAN_MOTION":13.17649049,"ECCENTRICITY":0.0001784,"INCLINATION":87.91,"RA_OF_ASC_NODE":53.2499,"ARG_OF_PERICENTER":79.7526,"MEAN_ANOMALY":280.3807,"EPHEMERIS_TYPE":0,"CLASSIFICATION_TYPE":"U","NORAD_CAT_ID":61595,"ELEMENT_SET_NO":999,"REV_AT_EPOCH":5454,"BSTAR":-1.0321e-6,"MEAN_MOTION_DOT":1.2e-7,"MEAN_MOTION_DDOT":0},{"OBJECT_NAME":"ONEWEB-0688","OBJECT_ID":"2024-188C","EPOCH":"2025-10-22T01:08:42.112896","MEAN_MOTION":13.17649196,"ECCENTRICITY":0.0001015,"INCLINATION":87.9099,"RA_OF_ASC_NODE":53.2594,"ARG_OF_PERICENTER":48.5988,"MEAN_ANOMALY":311.523,"EPHEMERIS_TYPE":0,"CLASSIFICATION_TYPE":"U","NORAD_CAT_ID":61596,"ELEMENT_SET_NO":999,"REV_AT_EPOCH":5453,"BSTAR":1.1019e-5,"MEAN_MOTION_DOT":1.7e-7,"MEAN_MOTION_DDOT":0},{"OBJECT_NAME":"ONEWEB-0689","OBJECT_ID":"2024-188D","EPOCH":"2025-10-22T01:38:44.028960","MEAN_MOTION":13.11415612,"ECCENTRICITY":0.0001825,"INCLINATION":87.8807,"RA_OF_ASC_NODE":68.465,"ARG_OF_PERICENTER":89.0737,"MEAN_ANOMALY":271.06,"EPHEMERIS_TYPE":0,"CLASSIFICATION_TYPE":"U","NORAD_CAT_ID":61597,"ELEMENT_SET_NO":999,"REV_AT_EPOCH":5324,"BSTAR":0.00096323,"MEAN_MOTION_DOT":3.54e-6,"MEAN_MOTION_DDOT":0},{"OBJECT_NAME":"ONEWEB-0690","OBJECT_ID":"2024-188E","EPOCH":"2025-10-22T01:53:21.939360","MEAN_MOTION":13.11413699,"ECCENTRICITY":0.0001531,"INCLINATION":87.8841,"RA_OF_ASC_NODE":68.4599,"ARG_OF_PERICENTER":125.4376,"MEAN_ANOMALY":234.6895,"EPHEMERIS_TYPE":0,"CLASSIFICATION_TYPE":"U","NORAD_CAT_ID":61598,"ELEMENT_SET_NO":999,"REV_AT_EPOCH":5342,"BSTAR":-0.00043283,"MEAN_MOTION_DOT":-1.41e-6,"MEAN_MOTION_DDOT":0},{"OBJECT_NAME":"ONEWEB-0691","OBJECT_ID":"2024-188F","EPOCH":"2025-10-22T01:46:03.239040","MEAN_MOTION":13.11415051,"ECCENTRICITY":0.000125,"INCLINATION":87.8774,"RA_OF_ASC_NODE":68.3886,"ARG_OF_PERICENTER":87.9543,"MEAN_ANOMALY":272.1728,"EPHEMERIS_TYPE":0,"CLASSIFICATION_TYPE":"U","NORAD_CAT_ID":61599,"ELEMENT_SET_NO":999,"REV_AT_EPOCH":5327,"BSTAR":0.00023123,"MEAN_MOTION_DOT":9.5e-7,"MEAN_MOTION_DDOT":0},{"OBJECT_NAME":"ONEWEB-0692","OBJECT_ID":"2024-188G","EPOCH":"2025-10-22T02:15:19.585152","MEAN_MOTION":13.11414381,"ECCENTRICITY":0.0002518,"INCLINATION":87.8821,"RA_OF_ASC_NODE":68.5127,"ARG_OF_PERICENTER":101.423,"MEAN_ANOMALY":258.7181,"EPHEMERIS_TYPE":0,"CLASSIFICATION_TYPE":"U","NORAD_CAT_ID":61600,"ELEMENT_SET_NO":999,"REV_AT_EPOCH":5326,"BSTAR":-0.0014776,"MEAN_MOTION_DOT":-5.11e-6,"MEAN_MOTION_DDOT":0},{"OBJECT_NAME":"ONEWEB-0693","OBJECT_ID":"2024-188H","EPOCH":"2025-10-22T01:25:41.549088","MEAN_MOTION":13.17648386,"ECCENTRICITY":0.0001276,"INCLINATION":87.91,"RA_OF_ASC_NODE":53.2758,"ARG_OF_PERICENTER":129.0258,"MEAN_ANOMALY":231.0987,"EPHEMERIS_TYPE":0,"CLASSIFICATION_TYPE":"U","NORAD_CAT_ID":61601,"ELEMENT_SET_NO":999,"REV_AT_EPOCH":5452,"BSTAR":1.5813e-5,"MEAN_MOTION_DOT":1.9e-7,"MEAN_MOTION_DDOT":0},{"OBJECT_NAME":"ONEWEB-0695","OBJECT_ID":"2024-188J","EPOCH":"2025-10-21T22:01:26.516064","MEAN_MOTION":13.11414584,"ECCENTRICITY":0.0002142,"INCLINATION":87.8823,"RA_OF_ASC_NODE":68.5357,"ARG_OF_PERICENTER":90.6916,"MEAN_ANOMALY":269.4457,"EPHEMERIS_TYPE":0,"CLASSIFICATION_TYPE":"U","NORAD_CAT_ID":61602,"ELEMENT_SET_NO":999,"REV_AT_EPOCH":5323,"BSTAR":0.00056295,"MEAN_MOTION_DOT":2.12e-6,"MEAN_MOTION_DDOT":0},{"OBJECT_NAME":"ONEWEB-0697","OBJECT_ID":"2024-188K","EPOCH":"2025-10-22T02:27:32.722848","MEAN_MOTION":13.11418078,"ECCENTRICITY":0.0002423,"INCLINATION":87.8825,"RA_OF_ASC_NODE":68.4894,"ARG_OF_PERICENTER":102.5832,"MEAN_ANOMALY":257.5567,"EPHEMERIS_TYPE":0,"CLASSIFICATION_TYPE":"U","NORAD_CAT_ID":61603,"ELEMENT_SET_NO":999,"REV_AT_EPOCH":5324,"BSTAR":-0.0015151,"MEAN_MOTION_DOT":-5.24e-6,"MEAN_MOTION_DDOT":0},{"OBJECT_NAME":"ONEWEB-0698","OBJECT_ID":"2024-188L","EPOCH":"2025-10-22T01:55:48.465984","MEAN_MOTION":13.11415527,"ECCENTRICITY":0.0002421,"INCLINATION":87.8822,"RA_OF_ASC_NODE":68.5087,"ARG_OF_PERICENTER":122.1237,"MEAN_ANOMALY":238.0126,"EPHEMERIS_TYPE":0,"CLASSIFICATION_TYPE":"U","NORAD_CAT_ID":61604,"ELEMENT_SET_NO":999,"REV_AT_EPOCH":5326,"BSTAR":-0.00051562,"MEAN_MOTION_DOT":-1.7e-6,"MEAN_MOTION_DDOT":0},{"OBJECT_NAME":"ONEWEB-0699","OBJECT_ID":"2024-188M","EPOCH":"2025-10-22T03:11:16.104192","MEAN_MOTION":13.10371192,"ECCENTRICITY":0.0002242,"INCLINATION":87.8769,"RA_OF_ASC_NODE":83.7137,"ARG_OF_PERICENTER":102.1242,"MEAN_ANOMALY":258.0136,"EPHEMERIS_TYPE":0,"CLASSIFICATION_TYPE":"U","NORAD_CAT_ID":61605,"ELEMENT_SET_NO":999,"REV_AT_EPOCH":5213,"BSTAR":-0.0017493,"MEAN_MOTION_DOT":-5.98e-6,"MEAN_MOTION_DDOT":0},{"OBJECT_NAME":"ONEWEB-0700","OBJECT_ID":"2024-188N","EPOCH":"2025-10-22T03:13:38.885376","MEAN_MOTION":13.10370931,"ECCENTRICITY":0.0002297,"INCLINATION":87.8774,"RA_OF_ASC_NODE":83.596,"ARG_OF_PERICENTER":86.6402,"MEAN_ANOMALY":273.4988,"EPHEMERIS_TYPE":0,"CLASSIFICATION_TYPE":"U","NORAD_CAT_ID":61606,"ELEMENT_SET_NO":999,"REV_AT_EPOCH":5212,"BSTAR":-0.001966,"MEAN_MOTION_DOT":-6.74e-6,"MEAN_MOTION_DDOT":0},{"OBJECT_NAME":"ONEWEB-0701","OBJECT_ID":"2024-188P","EPOCH":"2025-10-21T22:07:42.695616","MEAN_MOTION":13.103757,"ECCENTRICITY":0.0002398,"INCLINATION":87.8771,"RA_OF_ASC_NODE":83.758,"ARG_OF_PERICENTER":101.5598,"MEAN_ANOMALY":258.5799,"EPHEMERIS_TYPE":0,"CLASSIFICATION_TYPE":"U","NORAD_CAT_ID":61607,"ELEMENT_SET_NO":999,"REV_AT_EPOCH":5210,"BSTAR":-0.00053229,"MEAN_MOTION_DOT":-1.73e-6,"MEAN_MOTION_DDOT":0},{"OBJECT_NAME":"ONEWEB-0702","OBJECT_ID":"2024-188Q","EPOCH":"2025-10-21T21:32:08.858400","MEAN_MOTION":13.11418455,"ECCENTRICITY":0.0002591,"INCLINATION":87.8774,"RA_OF_ASC_NODE":68.4528,"ARG_OF_PERICENTER":96.9738,"MEAN_ANOMALY":263.1685,"EPHEMERIS_TYPE":0,"CLASSIFICATION_TYPE":"U","NORAD_CAT_ID":61608,"ELEMENT_SET_NO":999,"REV_AT_EPOCH":5325,"BSTAR":0.0015125,"MEAN_MOTION_DOT":5.49e-6,"MEAN_MOTION_DDOT":0},{"OBJECT_NAME":"ONEWEB-0704","OBJECT_ID":"2024-188R","EPOCH":"2025-10-21T21:50:58.104672","MEAN_MOTION":13.10373792,"ECCENTRICITY":0.000258,"INCLINATION":87.8783,"RA_OF_ASC_NODE":83.7186,"ARG_OF_PERICENTER":92.5019,"MEAN_ANOMALY":267.6404,"EPHEMERIS_TYPE":0,"CLASSIFICATION_TYPE":"U","NORAD_CAT_ID":61609,"ELEMENT_SET_NO":999,"REV_AT_EPOCH":5208,"BSTAR":-0.002009,"MEAN_MOTION_DOT":-6.89e-6,"MEAN_MOTION_DDOT":0},{"OBJECT_NAME":"ONEWEB-0705","OBJECT_ID":"2024-188S","EPOCH":"2025-10-22T03:28:00.968160","MEAN_MOTION":13.10376574,"ECCENTRICITY":0.0002498,"INCLINATION":87.8771,"RA_OF_ASC_NODE":83.7001,"ARG_OF_PERICENTER":70.4581,"MEAN_ANOMALY":289.6816,"EPHEMERIS_TYPE":0,"CLASSIFICATION_TYPE":"U","NORAD_CAT_ID":61610,"ELEMENT_SET_NO":999,"REV_AT_EPOCH":4428,"BSTAR":-0.0011275,"MEAN_MOTION_DOT":-3.81e-6,"MEAN_MOTION_DDOT":0}]
